GAOFEN-11 01            
1 43585U 18063A   25244.31147553  .00017102  00000+0  35876-3 0  9991
2 43585  97.1721 308.2979 0004681 328.5499  31.5470 15.45437837395588
TELKOM 4 (MERAH PUTIH)  
1 43587U 18064A   25244.04659295  .00000000  00000+0  00000+0 0  9991
2 43587   0.0206 124.3064 0001451  48.4058 292.5276  1.00269342 25981
BEIDOU-3 M12            
1 43602U 18067A   25244.02507907  .00000023  00000+0  00000+0 0  9997
2 43602  54.1904 190.8467 0007934  28.4942 331.5310  1.86227701 47738
BEIDOU-3 M11            
1 43603U 18067B   25243.08540524  .00000029  00000+0  00000+0 0  9991
2 43603  54.1877 190.8427 0004620  14.6026 345.3932  1.86227238 47742
HAIYANG-1C              
1 43609U 18068A   25244.33711023  .00000296  00000+0  12148-3 0  9997
2 43609  98.5557 315.3069 0009742 227.8312 132.2046 14.34132939365682
TELSTAR 18V             
1 43611U 18069A   25244.19521037 -.00000290  00000+0  00000+0 0  9994
2 43611   0.0342 270.6049 0002285 241.1981  37.0876  1.00272634 25730
ICESAT-2                
1 43613U 18070A   25244.19625158  .00006283  00000+0  22785-3 0  9992
2 43613  91.9933 213.1124 0002827 173.9514 186.1770 15.28320898388326
SSTL S1-4               
1 43618U 18071A   25244.24438666  .00001530  00000+0  14068-3 0  9995
2 43618  97.5417 122.1090 0002732  61.5457 298.6039 14.96184492379738
NOVASAR 1               
1 43619U 18071B   25244.27933681  .00001451  00000+0  13370-3 0  9993
2 43619  97.5456 122.7004 0002416  72.4084 287.7401 14.96174751379738
BEIDOU-3 M13            
1 43622U 18072A   25244.11712091 -.00000004  00000+0  00000+0 0  9997
2 43622  56.3676  72.2161 0004253 323.2618  36.7699  1.86231393 47276
BEIDOU-3 M14            
1 43623U 18072B   25243.98259288 -.00000005  00000+0  00000+0 0  9997
2 43623  56.3695  72.2145 0003831  16.8506 343.2226  1.86231425 47269
AZERSPACE 2 (IS-38)     
1 43632U 18074A   25244.17683696  .00000140  00000+0  00000+0 0  9994
2 43632   0.0139 172.8683 0001554 334.9435 301.5511  1.00270977 25549
HORIZONS-3E             
1 43633U 18074B   25244.18933721 -.00000027  00000+0  00000+0 0  9998
2 43633   0.0386 266.5002 0001636  28.8263 282.4512  1.00272946 25444
CENTISPACE-1 S1         
1 43636U 18075A   25244.33354348  .00001090  00000+0  23866-3 0  9990
2 43636  97.9060 277.1610 0007549 315.6788  44.3807 14.59534160368418
SAOCOM 1A               
1 43641U 18076A   25244.32589450  .00000924  00000+0  12258-3 0  9998
2 43641  97.8901  70.2121 0001434  89.3469 270.7909 14.82158880373314
YAOGAN-32 A             
1 43642U 18077A   25244.29226021  .00001431  00000+0  28989-3 0  9990
2 43642  97.9370 275.1368 0001482  85.4827 274.6545 14.62684415367603
YAOGAN-32 B             
1 43643U 18077B   25244.29213769  .00001406  00000+0  28511-3 0  9999
2 43643  97.9370 275.0962 0001398  87.1110 273.0252 14.62684667367598
BEIDOU-3 M16            
1 43647U 18078A   25242.53084767 -.00000067  00000+0  00000+0 0  9995
2 43647  54.3525 310.1648 0005839  25.0421 335.0514  1.86232430 46743
BEIDOU-3 M15            
1 43648U 18078B   25243.73393677 -.00000058  00000+0  00000+0 0  9992
2 43648  54.3471 310.1240 0002479  36.5231 323.5603  1.86232468 46781
AEHF-4 (USA 288)        
1 43651U 18079A   25244.22589958 -.00000270  00000+0  00000+0 0  9997
2 43651   1.5233 339.3252 0056502  12.3855   2.6016  1.00276383 25400
HAIYANG-2B              
1 43655U 18081A   25244.31371686  .00000021  00000+0  63671-4 0  9992
2 43655  99.3349 252.3795 0001068  20.3261 339.7934 13.79303635345105
COSMOS 2528             
1 43657U 18082A   25244.21249715 -.00000006  00000+0  49792-4 0  9993
2 43657  67.1485  60.0970 0006069 250.2753 109.7677 13.96682071349595
CFOSAT                  
1 43662U 18083A   25244.26846801  .00006336  00000+0  32890-3 0  9995
2 43662  97.3651 252.2848 0001417  98.9516 261.1878 15.16456919378655
GOSAT 2 (IBUKI 1)       
1 43672U 18084B   25244.28226760  .00003907  00000+0  47281-3 0  9996
2 43672  97.8608 354.6695 0001445  96.2413 263.8966 14.84239560370708
KHALIFASAT              
1 43676U 18084F   25244.33042225  .00004327  00000+0  35691-3 0  9997
2 43676  98.0895  50.2177 0009687 344.4142  15.6781 14.99550063372452
TEN-KOH                 
1 43677U 18084G   25244.07299324  .00004577  00000+0  36415-3 0  9995
2 43677  98.0832  59.6380 0006440 357.1860   2.9325 15.00931371372760
DIWATA-2B               
1 43678U 18084H   25244.32444262  .00004796  00000+0  40401-3 0  9990
2 43678  98.1104  63.6869 0008992  23.2796 336.8832 14.98686367372922
STARS-AO                
1 43679U 18084J   25243.95666139  .00011650  00000+0  67915-3 0  9994
2 43679  98.0748  75.5969 0003506  77.9641 282.1981 15.12152587373681
AUTCUBE 2               
1 43681U 18084K   25244.25833306  .00007641  00000+0  51567-3 0  9994
2 43681  98.0877  70.3905 0008582 303.6950  56.3457 15.06901109373360
BEIDOU-3 G1             
1 43683U 18085A   25244.26702416 -.00000276  00000+0  00000+0 0  9995
2 43683   2.8481 105.7919 0003932   6.8391 104.1504  1.00268085 25164
COSMOS 2529 [GLONASS-M] 
1 43687U 18086A   25241.77116846  .00000058  00000+0  00000+0 0  9996
2 43687  64.2955 202.4323 0011136 257.9205 101.9429  2.13102041 53074
