OBJECT_NAME,OBJECT_ID,EPOCH,MEAN_MOTION,ECCENTRICITY,INCLINATION,RA_OF_ASC_NODE,ARG_OF_PERICENTER,MEAN_ANOMALY,EPHEMERIS_TYPE,CLASSIFICATION_TYPE,NORAD_CAT_ID,ELEMENT_SET_NO,REV_AT_EPOCH,BSTAR,MEAN_MOTION_DOT,MEAN_MOTION_DDOT
GAOFEN-11 01,2018-063A,2025-09-01T07:28:31.485792,15.45437837,.0004681,97.1721,308.2979,328.5499,31.5470,0,U,43585,999,39558,.358762E-3,.17102E-3,0
TELKOM 4 (MERAH PUTIH),2018-064A,2025-09-01T01:07:05.630880,1.00269342,.00014511,0.0206,124.3064,48.4058,292.5276,0,U,43587,999,2598,0,0,0
BEIDOU-3 M12,2018-067A,2025-09-01T00:36:06.831648,1.86227701,.00079346,54.1904,190.8467,28.4942,331.5310,0,U,43602,999,4773,0,.23E-6,0
BEIDOU-3 M11,2018-067B,2025-08-31T02:02:59.012736,1.86227238,.00046203,54.1877,190.8427,14.6026,345.3932,0,U,43603,999,4774,0,.29E-6,0
HAIYANG-1C,2018-068A,2025-09-01T08:05:26.323872,14.34132939,.00097427,98.5557,315.3069,227.8312,132.2046,0,U,43609,999,36568,.12148447E-3,.296E-5,0
TELSTAR 18V,2018-069A,2025-09-01T04:41:06.175968,1.00272634,.00022857,0.0342,270.6049,241.1981,37.0876,0,U,43611,999,2573,0,-.29E-5,0
ICESAT-2,2018-070A,2025-09-01T04:42:36.136512,15.28320898,.00028274,91.9933,213.1124,173.9514,186.1770,0,U,43613,999,38832,.22785469E-3,.6283E-4,0
SSTL S1-4,2018-071A,2025-09-01T05:51:55.007424,14.96184492,.00027322,97.5417,122.1090,61.5457,298.6039,0,U,43618,999,37973,.14068489E-3,.153E-4,0
NOVASAR 1,2018-071B,2025-09-01T06:42:14.700384,14.96174751,.00024166,97.5456,122.7004,72.4084,287.7401,0,U,43619,999,37973,.13369672E-3,.1451E-4,0
BEIDOU-3 M13,2018-072A,2025-09-01T02:48:39.246624,1.86231393,.00042536,56.3676,72.2161,323.2618,36.7699,0,U,43622,999,4727,0,-.4E-7,0
BEIDOU-3 M14,2018-072B,2025-08-31T23:34:56.024832,1.86231425,.00038311,56.3695,72.2145,16.8506,343.2226,0,U,43623,999,4726,0,-.5E-7,0
AZERSPACE 2 (IS-38),2018-074A,2025-09-01T04:14:38.713344,1.00270977,.00015549,0.0139,172.8683,334.9435,301.5511,0,U,43632,999,2554,0,.14E-5,0
HORIZONS-3E,2018-074B,2025-09-01T04:32:38.734944,1.00272946,.00016367,0.0386,266.5002,28.8263,282.4512,0,U,43633,999,2544,0,-.27E-6,0
CENTISPACE-1 S1,2018-075A,2025-09-01T08:00:18.156672,14.59534160,.00075496,97.9060,277.1610,315.6788,44.3807,0,U,43636,999,36841,.23865518E-3,.109E-4,0
SAOCOM 1A,2018-076A,2025-09-01T07:49:17.284800,14.82158880,.00014348,97.8901,70.2121,89.3469,270.7909,0,U,43641,999,37331,.12257763E-3,.924E-5,0
YAOGAN-32 A,2018-077A,2025-09-01T07:00:51.282144,14.62684415,.00014824,97.9370,275.1368,85.4827,274.6545,0,U,43642,999,36760,.2898859E-3,.1431E-4,0
YAOGAN-32 B,2018-077B,2025-09-01T07:00:40.696416,14.62684667,.00013982,97.9370,275.0962,87.1110,273.0252,0,U,43643,999,36759,.28510681E-3,.1406E-4,0
BEIDOU-3 M16,2018-078A,2025-08-30T12:44:25.238688,1.86232430,.00058394,54.3525,310.1648,25.0421,335.0514,0,U,43647,999,4674,0,-.67E-6,0
BEIDOU-3 M15,2018-078B,2025-08-31T17:36:52.136928,1.86232468,.00024795,54.3471,310.1240,36.5231,323.5603,0,U,43648,999,4678,0,-.58E-6,0
AEHF-4 (USA 288),2018-079A,2025-09-01T05:25:17.723712,1.00276383,.00565028,1.5233,339.3252,12.3855,2.6016,0,U,43651,999,2540,0,-.27E-5,0
HAIYANG-2B,2018-081A,2025-09-01T07:31:45.136704,13.79303635,.00010681,99.3349,252.3795,20.3261,339.7934,0,U,43655,999,34510,.63671269E-4,.21E-6,0
COSMOS 2528,2018-082A,2025-09-01T05:05:59.753760,13.96682071,.00060697,67.1485,60.0970,250.2753,109.7677,0,U,43657,999,34959,.49791928E-4,-.6E-7,0
CFOSAT,2018-083A,2025-09-01T06:26:35.636064,15.16456919,.00014173,97.3651,252.2848,98.9516,261.1878,0,U,43662,999,37865,.32890024E-3,.6336E-4,0
GOSAT 2 (IBUKI 1),2018-084B,2025-09-01T06:46:27.920640,14.84239560,.00014455,97.8608,354.6695,96.2413,263.8966,0,U,43672,999,37070,.47281427E-3,.3907E-4,0
KHALIFASAT,2018-084F,2025-09-01T07:55:48.482400,14.99550063,.0009687,98.0895,50.2177,344.4142,15.6781,0,U,43676,999,37245,.35690777E-3,.4327E-4,0
TEN-KOH,2018-084G,2025-09-01T01:45:06.615936,15.00931371,.00064404,98.0832,59.6380,357.1860,2.9325,0,U,43677,999,37276,.36415119E-3,.4577E-4,0
DIWATA-2B,2018-084H,2025-09-01T07:47:11.842368,14.98686367,.00089925,98.1104,63.6869,23.2796,336.8832,0,U,43678,999,37292,.40400906E-3,.4796E-4,0
STARS-AO,2018-084J,2025-08-31T22:57:35.544096,15.12152587,.00035068,98.0748,75.5969,77.9641,282.1981,0,U,43679,999,37368,.67915179E-3,.1165E-3,0
AUTCUBE 2,2018-084K,2025-09-01T06:11:59.976384,15.06901109,.00085826,98.0877,70.3905,303.6950,56.3457,0,U,43681,999,37336,.51567338E-3,.7641E-4,0
BEIDOU-3 G1,2018-085A,2025-09-01T06:24:30.887424,1.00268085,.00039322,2.8481,105.7919,6.8391,104.1504,0,U,43683,999,2516,0,-.276E-5,0
COSMOS 2529 [GLONASS-M],2018-086A,2025-08-29T18:30:28.954944,2.13102041,.00111367,64.2955,202.4323,257.9205,101.9429,0,U,43687,999,5307,0,.58E-6,0
